{
  "type": "FeatureCollection",
  "name": "walk-way-graph",
  "features": [
    {
      "type": "Feature",
      "properties": {
        "Name": "Main Gate"
      },
      "geometry": {
        "type": "Point",
        "coordinates": [104.0888151174978, 17.19513814724714, 171.7870688509952]
      }
    },
    {
      "type": "Feature",
      "properties": {
        "Name": "Building 6 Node"
      },
      "geometry": {
        "type": "Point",
        "coordinates": [104.0884049868181, 17.19447060637371, 173.9562349948691]
      }
    },
    {
      "type": "Feature",
      "properties": {
        "Name": "Main Gate Junction"
      },
      "geometry": {
        "type": "Point",
        "coordinates": [104.0887874157878, 17.19509252391537, 172.0169791298941]
      }
    },
    {
      "type": "Feature",
      "properties": {
        "Name": "English Building Node"
      },
      "geometry": {
        "type": "Point",
        "coordinates": [104.0874386047456, 17.1949959159847, 172.8574157056781]
      }
    },
    {
      "type": "Feature",
      "properties": {
        "Name": "Library Node"
      },
      "geometry": {
        "type": "Point",
        "coordinates": [104.087815269936, 17.19562008929402, 172.3726605523805]
      }
    },
    {
      "type": "Feature",
      "properties": {
        "Name": "Cafeteria Junction"
      },
      "geometry": {
        "type": "Point",
        "coordinates": [104.088606927519, 17.19479467416091, 172.8483299693132]
      }
    },
    {
      "type": "Feature",
      "properties": {
        "Name": "Main road 1"
      },
      "geometry": {
        "type": "LineString",
        "coordinates": [
          [104.0888153904702, 17.19513887790847, 0],
          [104.0884050716721, 17.19447199787477, 0]
        ]
      }
    },
    {
      "type": "Feature",
      "properties": {
        "Name": "Middle road"
      },
      "geometry": {
        "type": "LineString",
        "coordinates": [
          [104.088404221665, 17.19447698869899, 0],
          [104.087438192156, 17.19499450298937, 0]
        ]
      }
    },
    {
      "type": "Feature",
      "properties": {
        "Name": "Walk way though a parking lot"
      },
      "geometry": {
        "type": "LineString",
        "coordinates": [
          [104.0887940051386, 17.19509847277503, 0],
          [104.0878137922619, 17.19562206083662, 0]
        ]
      }
    },
    {
      "type": "Feature",
      "properties": {
        "Name": "Library road"
      },
      "geometry": {
        "type": "LineString",
        "coordinates": [
          [104.0878138312349, 17.19562005028439, 0],
          [104.087436253749, 17.19499486464872, 0]
        ]
      }
    }
  ]
}
